[{"OBJECT_NAME":"ALSAT-1B","OBJECT_ID":"2016-059C","EPOCH":"2026-03-10T00:15:52.612704","MEAN_MOTION":14.72190019,"ECCENTRICITY":0.00091536,"INCLINATION":97.7807,"RA_OF_ASC_NODE":82.042,"ARG_OF_PERICENTER":176.3903,"MEAN_ANOMALY":183.7372,"EPHEMERIS_TYPE":0,"CLASSIFICATION_TYPE":"U","NORAD_CAT_ID":41785,"ELEMENT_SET_NO":999,"REV_AT_EPOCH":50598,"BSTAR":0.00016894626,"MEAN_MOTION_DOT":1.018e-5,"MEAN_MOTION_DDOT":0},{"OBJECT_NAME":"CZ-6A DEB","OBJECT_ID":"2024-140MU","EPOCH":"2026-03-09T08:11:13.796160","MEAN_MOTION":14.51654525,"ECCENTRICITY":0.00897833,"INCLINATION":89.0392,"RA_OF_ASC_NODE":285.764,"ARG_OF_PERICENTER":264.1005,"MEAN_ANOMALY":94.9964,"EPHEMERIS_TYPE":0,"CLASSIFICATION_TYPE":"U","NORAD_CAT_ID":61078,"ELEMENT_SET_NO":999,"REV_AT_EPOCH":8112,"BSTAR":0.0005342954,"MEAN_MOTION_DOT":2.272e-5,"MEAN_MOTION_DDOT":0}]
